COSMOS 2475 [GLONASS-M] 
1 37869U 11064C   23353.88799373  .00000012  00000+0  00000+0 0  9996
2 37869  64.8272 103.7987 0024317 249.9713 101.8354  2.13101524 94364
YAOGAN 12               
1 37875U 11066B   23355.44468546  .00012972  00000+0  54432-3 0  9994
2 37875  97.2491  56.2864 0006293 249.6183 110.4379 15.23585140674206
CHUANGXIN 1-03 (CX-1-03)
1 37930U 11068A   23355.56006654  .00000192  00000+0  91838-4 0  9992
2 37930  98.7151 355.7326 0013943 258.3410 212.1837 14.30066879633144
SHIYAN 4 (SY-4)         
1 37931U 11068B   23355.49579699  .00000385  00000+0  16527-3 0  9994
2 37931  98.7168 356.4953 0022129 291.5906 184.8569 14.30331294630827
ASIASAT 7               
1 37933U 11069A   23354.79395485 -.00000324  00000+0  00000+0 0  9997
2 37933   0.0138 342.1523 0001827 267.0007 231.2851  1.00271164 35742
YAOGAN 13               
1 37941U 11072A   23355.47012622  .00021640  00000+0  65405-3 0  9992
2 37941  97.7027 324.9595 0000948  71.5191 288.6154 15.34251653668997
BEIDOU-2 IGSO-5         
1 37948U 11073A   23355.28270444 -.00000171  00000+0  00000+0 0  9990
2 37948  49.3390 282.6747 0095016 221.3182 140.4189  1.00291158 44290
LUCH-5A                 
1 37951U 11074B   23355.48470458 -.00000042  00000+0  00000+0 0  9991
2 37951   6.4240  87.8904 0003395 170.7353 172.5155  1.00269833 44078
SSOT                    
1 38011U 11076E   23355.47444376  .00002390  00000+0  30749-3 0  9994
2 38011  97.7291  56.1112 0001599  88.3105  36.4014 14.82022106649794
PLEIADES 1A             
1 38012U 11076F   23355.43568375 -.00000354  00000+0 -66311-4 0  9992
2 38012  98.1834  67.6080 0001476  96.0478 358.2358 14.58558942639539
NIGCOMSAT 1R            
1 38014U 11077A   23354.74365955  .00000154  00000+0  00000+0 0  9991
2 38014   0.0465 143.9684 0002458 185.5451  69.7496  1.00271555 43831
ZIYUAN 1-02C (ZY 1-02C) 
1 38038U 11079A   23355.51442052  .00000740  00000+0  26700-3 0  9999
2 38038  98.5225  61.0146 0007494 134.3692 342.0691 14.36508302628716
GLOBALSTAR M084         
1 38040U 11080A   23355.08712986 -.00000077  00000+0  15025-3 0  9994
2 38040  52.0012 264.9158 0000734  36.6733  68.7832 12.62269512554233
GLOBALSTAR M080         
1 38041U 11080B   23354.11118260 -.00000086  00000+0  10086-3 0  9995
2 38041  52.0064 269.3015 0000445  39.7454  68.5077 12.62267427553955
GLOBALSTAR M082         
1 38042U 11080C   23354.83052861 -.00000086  00000+0  99358-4 0  9999
2 38042  52.0056 222.4990 0001676  77.1435   2.6931 12.62264538554758
GLOBALSTAR M092         
1 38043U 11080D   23355.12203215 -.00000088  00000+0  86862-4 0  9992
2 38043  52.0102 311.9597 0000558  13.8941  70.3337 12.62247744553453
GLOBALSTAR M090         
1 38044U 11080E   23354.94121733 -.00000085  00000+0  10370-3 0  9993
2 38044  51.9866 216.6710 0001340  80.3384  23.3910 12.62264897554888
GLOBALSTAR M086         
1 38045U 11080F   23354.96903258 -.00000085  00000+0  10496-3 0  9995
2 38045  51.9875 217.0966 0001109 130.2303 339.0401 12.62265810554930
ZIYUAN 3-1 (ZY 3-1)     
1 38046U 12001A   23355.45263576  .00014310  00000+0  53947-3 0  9990
2 38046  97.2744  56.7442 0004615  36.6417 323.5138 15.27158349663620
FENGYUN 2F              
1 38049U 12002A   23355.53034793 -.00000348  00000+0  00000+0 0  9995
2 38049   5.1521  74.9209 0000511 331.0240 346.5761  1.00260455 43777
WGS F4 (USA 233)        
1 38070U 12003A   23354.60910573 -.00000206  00000+0  00000+0 0  9999
2 38070   0.0174  17.5270 0000527 198.5117 180.5739  1.00271761 35017
LARES                   
1 38077U 12006A   23355.44663684 -.00000046  00000+0 -47201-4 0  9992
2 38077  69.4927  44.4564 0009293 195.5826 164.4915 12.54931328543156
SES-4                   
1 38087U 12007A   23354.87403788 -.00000158  00000+0  00000+0 0  9991
2 38087   0.0230  38.7666 0002304 230.2250 112.8598  1.00271424 43116
BEIDOU-2 G5             
1 38091U 12008A   23355.46312295  .00000066  00000+0  00000+0 0  9992
2 38091   1.9703  70.0258 0008837 207.1881  37.9676  1.00273107 43363
MUOS-1                  
1 38093U 12009A   23355.32132875 -.00000119  00000+0  00000+0 0  9994
2 38093   3.7282  42.8017 0051603 356.5550  65.9812  1.00272037 43340
INTELSAT 22 (IS-22)     
1 38098U 12011A   23354.67750562 -.00000049  00000+0  00000+0 0  9990
2 38098   0.0137  76.5579 0003077 193.8185 134.6248  1.00272083 42694
APSTAR 7                
1 38107U 12013A   23355.10850513 -.00000091  00000+0  00000+0 0  9996
2 38107   0.0356 106.6436 0002929 172.3774 285.9653  1.00271326 43056
YAHSAT 1B               
1 38245U 12016A   23355.03938035  .00000136  00000+0  00000+0 0  9999
2 38245   0.0405  95.8133 0001875 208.2164 207.0970  1.00270044 42803
BEIDOU-2 M3             
1 38250U 12018A   23354.58951980 -.00000077  00000+0  00000+0 0  9995
2 38250  56.4525 335.3131 0025192 264.0826  95.6327  1.86231086 79006
BEIDOU-2 M4             
1 38251U 12018B   23354.52050340 -.00000077  00000+0  00000+0 0  9990
2 38251  56.3619 334.6005 0016161 267.8164  92.0008  1.86231831 79009
AEHF-2 (USA 235)        
1 38254U 12019A   23354.57281722 -.00000152  00000+0  00000+0 0  9993
2 38254   4.5528  62.0736 0005077 204.2579 294.5712  1.00269474 41738
