OBJECT_NAME,OBJECT_ID,EPOCH,MEAN_MOTION,ECCENTRICITY,INCLINATION,RA_OF_ASC_NODE,ARG_OF_PERICENTER,MEAN_ANOMALY,EPHEMERIS_TYPE,CLASSIFICATION_TYPE,NORAD_CAT_ID,ELEMENT_SET_NO,REV_AT_EPOCH,BSTAR,MEAN_MOTION_DOT,MEAN_MOTION_DDOT
COSMOS 2475 [GLONASS-M],2011-064C,2023-12-19T21:18:42.658272,2.13101524,0.0024317,64.8272,103.7987,249.9713,101.8354,0,U,37869,999,9436,0,1.20E-07,0
YAOGAN 12,2011-066B,2023-12-21T10:40:20.823744,15.2358514,0.0006293,97.2491,56.2864,249.6183,110.4379,0,U,37875,999,67420,5.44E-04,1.30E-04,0
CHUANGXIN 1-03 (CX-1-03),2011-068A,2023-12-21T13:26:29.749056,14.30066879,0.0013943,98.7151,355.7326,258.341,212.1837,0,U,37930,999,63314,9.18E-05,1.92E-06,0
SHIYAN 4 (SY-4),2011-068B,2023-12-21T11:53:56.859936,14.30331294,0.0022129,98.7168,356.4953,291.5906,184.8569,0,U,37931,999,63082,1.65E-04,3.85E-06,0
ASIASAT 7,2011-069A,2023-12-20T19:03:17.699040,1.00271164,0.0001827,0.0138,342.1523,267.0007,231.2851,0,U,37933,999,3574,0,-3.24E-06,0
YAOGAN 13,2011-072A,2023-12-21T11:16:58.905408,15.34251653,0.0000948,97.7027,324.9595,71.5191,288.6154,0,U,37941,999,66899,6.54E-04,2.16E-04,0
BEIDOU-2 IGSO-5,2011-073A,2023-12-21T06:47:05.663616,1.00291158,0.0095016,49.339,282.6747,221.3182,140.4189,0,U,37948,999,4429,0,-1.71E-06,0
LUCH-5A,2011-074B,2023-12-21T11:37:58.475712,1.00269833,0.0003395,6.424,87.8904,170.7353,172.5155,0,U,37951,999,4407,0,-4.20E-07,0
SSOT,2011-076E,2023-12-21T11:23:11.940864,14.82022106,0.0001599,97.7291,56.1112,88.3105,36.4014,0,U,38011,999,64979,3.07E-04,2.39E-05,0
PLEIADES 1A,2011-076F,2023-12-21T10:27:23.076000,14.58558942,0.0001476,98.1834,67.608,96.0478,358.2358,0,U,38012,999,63953,-6.63E-05,-3.54E-06,0
NIGCOMSAT 1R,2011-077A,2023-12-20T17:50:52.185120,1.00271555,0.0002458,0.0465,143.9684,185.5451,69.7496,0,U,38014,999,4383,0,1.54E-06,0
ZIYUAN 1-02C (ZY 1-02C),2011-079A,2023-12-21T12:20:45.932928,14.36508302,0.0007494,98.5225,61.0146,134.3692,342.0691,0,U,38038,999,62871,2.67E-04,7.40E-06,0
GLOBALSTAR M084,2011-080A,2023-12-21T02:05:28.019904,12.62269512,0.0000734,52.0012,264.9158,36.6733,68.7832,0,U,38040,999,55423,1.50E-04,-7.70E-07,0
GLOBALSTAR M080,2011-080B,2023-12-20T02:40:06.176640,12.62267427,0.0000445,52.0064,269.3015,39.7454,68.5077,0,U,38041,999,55395,1.01E-04,-8.60E-07,0
GLOBALSTAR M082,2011-080C,2023-12-20T19:55:57.671904,12.62264538,0.0001676,52.0056,222.499,77.1435,2.6931,0,U,38042,999,55475,9.94E-05,-8.60E-07,0
GLOBALSTAR M092,2011-080D,2023-12-21T02:55:43.577760,12.62247744,0.0000558,52.0102,311.9597,13.8941,70.3337,0,U,38043,999,55345,8.69E-05,-8.80E-07,0
GLOBALSTAR M090,2011-080E,2023-12-20T22:35:21.177312,12.62264897,0.000134,51.9866,216.671,80.3384,23.391,0,U,38044,999,55488,1.04E-04,-8.50E-07,0
GLOBALSTAR M086,2011-080F,2023-12-20T23:15:24.414912,12.6226581,0.0001109,51.9875,217.0966,130.2303,339.0401,0,U,38045,999,55493,1.05E-04,-8.50E-07,0
ZIYUAN 3-1 (ZY 3-1),2012-001A,2023-12-21T10:51:47.729664,15.27158349,0.0004615,97.2744,56.7442,36.6417,323.5138,0,U,38046,999,66362,5.39E-04,1.43E-04,0
FENGYUN 2F,2012-002A,2023-12-21T12:43:42.061152,1.00260455,0.0000511,5.1521,74.9209,331.024,346.5761,0,U,38049,999,4377,0,-3.48E-06,0
WGS F4 (USA 233),2012-003A,2023-12-20T14:37:06.735072,1.00271761,0.0000527,0.0174,17.527,198.5117,180.5739,0,U,38070,999,3501,0,-2.06E-06,0
LARES,2012-006A,2023-12-21T10:43:09.422976,12.54931328,0.0009293,69.4927,44.4564,195.5826,164.4915,0,U,38077,999,54315,-4.72E-05,-4.60E-07,0
SES-4,2012-007A,2023-12-20T20:58:36.872832,1.00271424,0.0002304,0.023,38.7666,230.225,112.8598,0,U,38087,999,4311,0,-1.58E-06,0
BEIDOU-2 G5,2012-008A,2023-12-21T11:06:53.822880,1.00273107,0.0008837,1.9703,70.0258,207.1881,37.9676,0,U,38091,999,4336,0,6.60E-07,0
MUOS-1,2012-009A,2023-12-21T07:42:42.804000,1.00272037,0.0051603,3.7282,42.8017,356.555,65.9812,0,U,38093,999,4334,0,-1.19E-06,0
INTELSAT 22 (IS-22),2012-011A,2023-12-20T16:15:36.485568,1.00272083,0.0003077,0.0137,76.5579,193.8185,134.6248,0,U,38098,999,4269,0,-4.90E-07,0
APSTAR 7,2012-013A,2023-12-21T02:36:14.843232,1.00271326,0.0002929,0.0356,106.6436,172.3774,285.9653,0,U,38107,999,4305,0,-9.10E-07,0
YAHSAT 1B,2012-016A,2023-12-21T00:56:42.462240,1.00270044,0.0001875,0.0405,95.8133,208.2164,207.097,0,U,38245,999,4280,0,1.36E-06,0
BEIDOU-2 M3,2012-018A,2023-12-20T14:08:54.510720,1.86231086,0.0025192,56.4525,335.3131,264.0826,95.6327,0,U,38250,999,7900,0,-7.70E-07,0
BEIDOU-2 M4,2012-018B,2023-12-20T12:29:31.493760,1.86231831,0.0016161,56.3619,334.6005,267.8164,92.0008,0,U,38251,999,7900,0,-7.70E-07,0
AEHF-2 (USA 235),2012-019A,2023-12-20T13:44:51.407808,1.00269474,0.0005077,4.5528,62.0736,204.2579,294.5712,0,U,38254,999,4173,0,-1.52E-06,0
